[{"OBJECT_NAME":"JILIN-1 GAOFEN 2F","OBJECT_ID":"2021-097A","EPOCH":"2026-03-09T22:15:16.366464","MEAN_MOTION":15.06938169,"ECCENTRICITY":0.00186372,"INCLINATION":97.6538,"RA_OF_ASC_NODE":195.5232,"ARG_OF_PERICENTER":201.1609,"MEAN_ANOMALY":158.885,"EPHEMERIS_TYPE":0,"CLASSIFICATION_TYPE":"U","NORAD_CAT_ID":49338,"ELEMENT_SET_NO":999,"REV_AT_EPOCH":24136,"BSTAR":0.0003789548,"MEAN_MOTION_DOT":5.624e-5,"MEAN_MOTION_DDOT":0},{"OBJECT_NAME":"STARLINK-35007","OBJECT_ID":"2025-184Q","EPOCH":"2026-03-09T17:28:53.162112","MEAN_MOTION":15.05651077,"ECCENTRICITY":9.889e-5,"INCLINATION":97.6019,"RA_OF_ASC_NODE":122.6525,"ARG_OF_PERICENTER":88.6309,"MEAN_ANOMALY":271.5031,"EPHEMERIS_TYPE":0,"CLASSIFICATION_TYPE":"U","NORAD_CAT_ID":65287,"ELEMENT_SET_NO":999,"REV_AT_EPOCH":3124,"BSTAR":0.00017312166,"MEAN_MOTION_DOT":2.438e-5,"MEAN_MOTION_DDOT":0}]
